GLOBALSTAR M035         
1 25851U 99037A   25063.87514514 -.00000042  00000+0  83116-3 0  9998
2 25851  51.9942 287.5964 0013791 168.6821 282.8109 11.04536631 84739
GLOBALSTAR M032         
1 25852U 99037B   25063.46621012  .00000014  00000+0  25813-2 0  9993
2 25852  51.9938 120.9253 0010919 352.1231   7.9396 11.19061038123064
GLOBALSTAR M051         
1 25853U 99037C   25064.35221623 -.00000048  00000+0  59697-3 0  9993
2 25853  51.9793 291.3864 0001567  52.4123 307.6829 11.42204345120541
GLOBALSTAR M030         
1 25854U 99037D   25064.41541007 -.00000094  00000+0 -41057-3 0  9995
2 25854  51.9866 103.9322 0003901 219.6693 140.3839 11.55099863138153
GLOBALSTAR M048         
1 25872U 99041A   25064.52723409 -.00000052  00000+0  50163-3 0  9991
2 25872  51.9342 221.9855 0013068  10.0371  34.3938 11.33855086113108
GLOBALSTAR M026         
1 25873U 99041B   25063.68712442 -.00000008  00000+0  20641-2 0  9991
2 25873  52.0022  47.0665 0001706  87.8803  82.6967 11.06828730136918
GLOBALSTAR M043         
1 25874U 99041C   25063.93602476 -.00000017  00000+0  15319-2 0  9991
2 25874  51.9433 326.8827 0013634 132.3677 310.9893 11.25690839111139
GLOBALSTAR M028         
1 25875U 99041D   25064.49116347 -.00000049  00000+0  33298-3 0  9993
2 25875  51.9619 142.2673 0063428 205.7450 154.0249 12.50578507177236
